CCSDS_OMM_VERS = 2.0
CREATION_DATE  = 
ORIGINATOR     = 

OBJECT_NAME    = ELECTRON R/B
OBJECT_ID      = 2025-307B
CENTER_NAME    = EARTH
REF_FRAME      = TEME
TIME_SYSTEM    = UTC
MEAN_ELEMENT_THEORY = SGP/SGP4

EPOCH          = 2026-01-09T09:33:01.809504
MEAN_MOTION    = 15.77331631
ECCENTRICITY   = .01701597
INCLINATION    = 41.9942
RA_OF_ASC_NODE = 7.6413
ARG_OF_PERICENTER = 15.5064
MEAN_ANOMALY   = 345.0915

EPHEMERIS_TYPE = 0
CLASSIFICATION_TYPE = U
NORAD_CAT_ID   = 67229
ELEMENT_SET_NO = 999
REV_AT_EPOCH   = 299
BSTAR          = .20284552E-2
MEAN_MOTION_DOT = .965777E-2
MEAN_MOTION_DDOT = .33609286E-3

CCSDS_OMM_VERS = 2.0
CREATION_DATE  = 
ORIGINATOR     = 

OBJECT_NAME    = ELECTRON KICK STAGE R/B
OBJECT_ID      = 2025-307C
CENTER_NAME    = EARTH
REF_FRAME      = TEME
TIME_SYSTEM    = UTC
MEAN_ELEMENT_THEORY = SGP/SGP4

EPOCH          = 2026-01-09T04:44:11.210208
MEAN_MOTION    = 15.91767681
ECCENTRICITY   = .0133019
INCLINATION    = 42.0034
RA_OF_ASC_NODE = 7.8690
ARG_OF_PERICENTER = 47.2470
MEAN_ANOMALY   = 313.9493

EPHEMERIS_TYPE = 0
CLASSIFICATION_TYPE = U
NORAD_CAT_ID   = 67230
ELEMENT_SET_NO = 999
REV_AT_EPOCH   = 137
BSTAR          = .20966E-2
MEAN_MOTION_DOT = .1702998E-1
MEAN_MOTION_DDOT = .78884E-5

CCSDS_OMM_VERS = 2.0
CREATION_DATE  = 
ORIGINATOR     = 

OBJECT_NAME    = SPACEMOBILE-006
OBJECT_ID      = 2025-309A
CENTER_NAME    = EARTH
REF_FRAME      = TEME
TIME_SYSTEM    = UTC
MEAN_ELEMENT_THEORY = SGP/SGP4

EPOCH          = 2026-01-08T15:49:04.309824
MEAN_MOTION    = 15.17725082
ECCENTRICITY   = .00114746
INCLINATION    = 52.9977
RA_OF_ASC_NODE = 341.8434
ARG_OF_PERICENTER = 10.4859
MEAN_ANOMALY   = 349.6371

EPHEMERIS_TYPE = 0
CLASSIFICATION_TYPE = U
NORAD_CAT_ID   = 67232
ELEMENT_SET_NO = 999
REV_AT_EPOCH   = 236
BSTAR          = .94525815E-4
MEAN_MOTION_DOT = .1613E-4
MEAN_MOTION_DDOT = 0

CCSDS_OMM_VERS = 2.0
CREATION_DATE  = 
ORIGINATOR     = 

OBJECT_NAME    = LVM3 R/B
OBJECT_ID      = 2025-309B
CENTER_NAME    = EARTH
REF_FRAME      = TEME
TIME_SYSTEM    = UTC
MEAN_ELEMENT_THEORY = SGP/SGP4

EPOCH          = 2026-01-09T10:19:48.010656
MEAN_MOTION    = 15.19604219
ECCENTRICITY   = .0011232
INCLINATION    = 52.9273
RA_OF_ASC_NODE = 337.9152
ARG_OF_PERICENTER = 38.6376
MEAN_ANOMALY   = 321.5418

EPHEMERIS_TYPE = 0
CLASSIFICATION_TYPE = U
NORAD_CAT_ID   = 67233
ELEMENT_SET_NO = 999
REV_AT_EPOCH   = 248
BSTAR          = .41185412E-3
MEAN_MOTION_DOT = .8578E-4
MEAN_MOTION_DDOT = 0

CCSDS_OMM_VERS = 2.0
CREATION_DATE  = 
ORIGINATOR     = 

OBJECT_NAME    = 2025-310A
OBJECT_ID      = 2025-310A
CENTER_NAME    = EARTH
REF_FRAME      = TEME
TIME_SYSTEM    = UTC
MEAN_ELEMENT_THEORY = SGP/SGP4

EPOCH          = 2026-01-07T16:06:22.408416
MEAN_MOTION    = 14.75713796
ECCENTRICITY   = .00014299
INCLINATION    = 97.9664
RA_OF_ASC_NODE = 17.2888
ARG_OF_PERICENTER = 204.5799
MEAN_ANOMALY   = 155.5342

EPHEMERIS_TYPE = 0
CLASSIFICATION_TYPE = U
NORAD_CAT_ID   = 67234
ELEMENT_SET_NO = 999
REV_AT_EPOCH   = 195
BSTAR          = .12564798E-4
MEAN_MOTION_DOT = .36E-6
MEAN_MOTION_DDOT = 0

CCSDS_OMM_VERS = 2.0
CREATION_DATE  = 
ORIGINATOR     = 

OBJECT_NAME    = SL-4 R/B
OBJECT_ID      = 2025-310B
CENTER_NAME    = EARTH
REF_FRAME      = TEME
TIME_SYSTEM    = UTC
MEAN_ELEMENT_THEORY = SGP/SGP4

EPOCH          = 2026-01-06T23:19:17.199840
MEAN_MOTION    = 15.54322026
ECCENTRICITY   = .02798039
INCLINATION    = 97.9559
RA_OF_ASC_NODE = 17.8332
ARG_OF_PERICENTER = 31.7615
MEAN_ANOMALY   = 330.0176

EPHEMERIS_TYPE = 0
CLASSIFICATION_TYPE = U
NORAD_CAT_ID   = 67235
ELEMENT_SET_NO = 999
REV_AT_EPOCH   = 192
BSTAR          = .29114417E-3
MEAN_MOTION_DOT = .123938E-2
MEAN_MOTION_DDOT = .2291578E-5

CCSDS_OMM_VERS = 2.0
CREATION_DATE  = 
ORIGINATOR     = 

OBJECT_NAME    = HULIANWANG DIGUI-128
OBJECT_ID      = 2025-311A
CENTER_NAME    = EARTH
REF_FRAME      = TEME
TIME_SYSTEM    = UTC
MEAN_ELEMENT_THEORY = SGP/SGP4

EPOCH          = 2026-01-09T14:18:30.446208
MEAN_MOTION    = 13.90209327
ECCENTRICITY   = .00065399
INCLINATION    = 50.0102
RA_OF_ASC_NODE = 337.4708
ARG_OF_PERICENTER = 325.6947
MEAN_ANOMALY   = 34.3529

EPHEMERIS_TYPE = 0
CLASSIFICATION_TYPE = U
NORAD_CAT_ID   = 67236
ELEMENT_SET_NO = 999
REV_AT_EPOCH   = 204
BSTAR          = .13277622E-3
MEAN_MOTION_DOT = .19E-6
MEAN_MOTION_DDOT = 0

CCSDS_OMM_VERS = 2.0
CREATION_DATE  = 
ORIGINATOR     = 

OBJECT_NAME    = HULIANWANG DIGUI-129
OBJECT_ID      = 2025-311B
CENTER_NAME    = EARTH
REF_FRAME      = TEME
TIME_SYSTEM    = UTC
MEAN_ELEMENT_THEORY = SGP/SGP4

EPOCH          = 2026-01-09T14:20:05.928576
MEAN_MOTION    = 13.90165739
ECCENTRICITY   = .00077826
INCLINATION    = 50.0091
RA_OF_ASC_NODE = 337.4743
ARG_OF_PERICENTER = 327.3382
MEAN_ANOMALY   = 32.7035

EPHEMERIS_TYPE = 0
CLASSIFICATION_TYPE = U
NORAD_CAT_ID   = 67237
ELEMENT_SET_NO = 999
REV_AT_EPOCH   = 204
BSTAR          = .14212384E-3
MEAN_MOTION_DOT = .31E-6
MEAN_MOTION_DDOT = 0

CCSDS_OMM_VERS = 2.0
CREATION_DATE  = 
ORIGINATOR     = 

OBJECT_NAME    = HULIANWANG DIGUI-130
OBJECT_ID      = 2025-311C
CENTER_NAME    = EARTH
REF_FRAME      = TEME
TIME_SYSTEM    = UTC
MEAN_ELEMENT_THEORY = SGP/SGP4

EPOCH          = 2026-01-09T14:29:58.203168
MEAN_MOTION    = 13.90217179
ECCENTRICITY   = .00077781
INCLINATION    = 50.0072
RA_OF_ASC_NODE = 337.5056
ARG_OF_PERICENTER = 304.7727
MEAN_ANOMALY   = 55.2439

EPHEMERIS_TYPE = 0
CLASSIFICATION_TYPE = U
NORAD_CAT_ID   = 67238
ELEMENT_SET_NO = 999
REV_AT_EPOCH   = 204
BSTAR          = .1331818E-3
MEAN_MOTION_DOT = .2E-6
MEAN_MOTION_DDOT = 0

CCSDS_OMM_VERS = 2.0
CREATION_DATE  = 
ORIGINATOR     = 

OBJECT_NAME    = HULIANWANG DIGUI-131
OBJECT_ID      = 2025-311D
CENTER_NAME    = EARTH
REF_FRAME      = TEME
TIME_SYSTEM    = UTC
MEAN_ELEMENT_THEORY = SGP/SGP4

EPOCH          = 2026-01-09T14:34:22.110240
MEAN_MOTION    = 13.90204228
ECCENTRICITY   = .00093675
INCLINATION    = 50.0068
RA_OF_ASC_NODE = 337.5203
ARG_OF_PERICENTER = 312.2307
MEAN_ANOMALY   = 47.7796

EPHEMERIS_TYPE = 0
CLASSIFICATION_TYPE = U
NORAD_CAT_ID   = 67239
ELEMENT_SET_NO = 999
REV_AT_EPOCH   = 204
BSTAR          = .13523742E-3
MEAN_MOTION_DOT = .22E-6
MEAN_MOTION_DDOT = 0

CCSDS_OMM_VERS = 2.0
CREATION_DATE  = 
ORIGINATOR     = 

OBJECT_NAME    = HULIANWANG DIGUI-132
OBJECT_ID      = 2025-311E
CENTER_NAME    = EARTH
REF_FRAME      = TEME
TIME_SYSTEM    = UTC
MEAN_ELEMENT_THEORY = SGP/SGP4

EPOCH          = 2026-01-09T14:25:36.693696
MEAN_MOTION    = 13.90230182
ECCENTRICITY   = .00084491
INCLINATION    = 50.0080
RA_OF_ASC_NODE = 337.4915
ARG_OF_PERICENTER = 318.9262
MEAN_ANOMALY   = 41.0999

EPHEMERIS_TYPE = 0
CLASSIFICATION_TYPE = U
NORAD_CAT_ID   = 67240
ELEMENT_SET_NO = 999
REV_AT_EPOCH   = 204
BSTAR          = .12912984E-3
MEAN_MOTION_DOT = .15E-6
MEAN_MOTION_DDOT = 0

CCSDS_OMM_VERS = 2.0
CREATION_DATE  = 
ORIGINATOR     = 

OBJECT_NAME    = HULIANWANG DIGUI-133
OBJECT_ID      = 2025-311F
CENTER_NAME    = EARTH
REF_FRAME      = TEME
TIME_SYSTEM    = UTC
MEAN_ELEMENT_THEORY = SGP/SGP4

EPOCH          = 2026-01-09T14:22:51.652416
MEAN_MOTION    = 13.90208134
ECCENTRICITY   = .00075653
INCLINATION    = 50.0124
RA_OF_ASC_NODE = 337.4909
ARG_OF_PERICENTER = 322.9056
MEAN_ANOMALY   = 37.1319

EPHEMERIS_TYPE = 0
CLASSIFICATION_TYPE = U
NORAD_CAT_ID   = 67241
ELEMENT_SET_NO = 999
REV_AT_EPOCH   = 204
BSTAR          = .13517396E-3
MEAN_MOTION_DOT = .22E-6
MEAN_MOTION_DDOT = 0

CCSDS_OMM_VERS = 2.0
CREATION_DATE  = 
ORIGINATOR     = 

OBJECT_NAME    = HULIANWANG DIGUI-134
OBJECT_ID      = 2025-311G
CENTER_NAME    = EARTH
REF_FRAME      = TEME
TIME_SYSTEM    = UTC
MEAN_ELEMENT_THEORY = SGP/SGP4

EPOCH          = 2026-01-09T14:24:21.424608
MEAN_MOTION    = 13.90194121
ECCENTRICITY   = .00066917
INCLINATION    = 50.0053
RA_OF_ASC_NODE = 337.4812
ARG_OF_PERICENTER = 311.8539
MEAN_ANOMALY   = 48.1788

EPHEMERIS_TYPE = 0
CLASSIFICATION_TYPE = U
NORAD_CAT_ID   = 67242
ELEMENT_SET_NO = 999
REV_AT_EPOCH   = 204
BSTAR          = .12846629E-3
MEAN_MOTION_DOT = .14E-6
MEAN_MOTION_DDOT = 0

CCSDS_OMM_VERS = 2.0
CREATION_DATE  = 
ORIGINATOR     = 

OBJECT_NAME    = HULIANWANG DIGUI-135
OBJECT_ID      = 2025-311H
CENTER_NAME    = EARTH
REF_FRAME      = TEME
TIME_SYSTEM    = UTC
MEAN_ELEMENT_THEORY = SGP/SGP4

EPOCH          = 2026-01-09T14:27:17.805024
MEAN_MOTION    = 13.90183177
ECCENTRICITY   = .00079148
INCLINATION    = 50.0040
RA_OF_ASC_NODE = 337.4889
ARG_OF_PERICENTER = 314.4507
MEAN_ANOMALY   = 45.5744

EPHEMERIS_TYPE = 0
CLASSIFICATION_TYPE = U
NORAD_CAT_ID   = 67243
ELEMENT_SET_NO = 999
REV_AT_EPOCH   = 204
BSTAR          = .12296716E-3
MEAN_MOTION_DOT = .7E-7
MEAN_MOTION_DDOT = 0

CCSDS_OMM_VERS = 2.0
CREATION_DATE  = 
ORIGINATOR     = 

OBJECT_NAME    = HULIANWANG DIGUI-136
OBJECT_ID      = 2025-311J
CENTER_NAME    = EARTH
REF_FRAME      = TEME
TIME_SYSTEM    = UTC
MEAN_ELEMENT_THEORY = SGP/SGP4

EPOCH          = 2026-01-09T14:21:19.886976
MEAN_MOTION    = 13.90229078
ECCENTRICITY   = .00068382
INCLINATION    = 50.0112
RA_OF_ASC_NODE = 337.4825
ARG_OF_PERICENTER = 320.7513
MEAN_ANOMALY   = 39.2889

EPHEMERIS_TYPE = 0
CLASSIFICATION_TYPE = U
NORAD_CAT_ID   = 67244
ELEMENT_SET_NO = 999
REV_AT_EPOCH   = 204
BSTAR          = .12917597E-3
MEAN_MOTION_DOT = .15E-6
MEAN_MOTION_DDOT = 0

